{
  "type": "FeatureCollection",
  "features": [
    {
      "type": "Feature",
      "properties": {
        "norad_id": 66856,
        "name": "STARLINK-36072",
        "group": "last-30-days",
        "lat": 42.0745754448653,
        "lon": 143.24190127824065,
        "alt_km": 354.4592358680993,
        "timestamp": "2025-12-21T16:47:53.450654+00:00",
        "meta_object_name": "STARLINK-36072",
        "meta_object_id": "2025-281J",
        "meta_epoch": "2025-12-21T12:00:02.000160",
        "meta_mean_motion": 15.70350526,
        "meta_eccentricity": 0.0001323,
        "meta_inclination": 43.0002,
        "meta_ra_of_asc_node": 68.7974,
        "meta_arg_of_pericenter": 285.7179,
        "meta_mean_anomaly": 102.5281,
        "meta_ephemeris_type": 0,
        "meta_classification_type": "U",
        "meta_norad_cat_id": 66856,
        "meta_element_set_no": 999,
        "meta_rev_at_epoch": 280,
        "meta_bstar": -0.017476,
        "meta_mean_motion_dot": -0.01944358,
        "meta_mean_motion_ddot": 0,
        "tle_line1": "1 66856U 25281J   25355.50002315 -.01944358  00000+0 -17476-1 0  9996",
        "tle_line2": "2 66856  43.0002  68.7974 0001323 285.7179 102.5281 15.70350526  2804"
      },
      "geometry": {
        "type": "Point",
        "coordinates": [
          143.24190127824065,
          42.0745754448653
        ]
      }
    },
    {
      "type": "Feature",
      "properties": {
        "norad_id": 66857,
        "name": "STARLINK-36083",
        "group": "last-30-days",
        "lat": 42.37062187323404,
        "lon": 145.79897359921534,
        "alt_km": 354.43200635957237,
        "timestamp": "2025-12-21T16:47:53.450666+00:00",
        "meta_object_name": "STARLINK-36083",
        "meta_object_id": "2025-281K",
        "meta_epoch": "2025-12-21T12:00:02.000160",
        "meta_mean_motion": 15.70349349,
        "meta_eccentricity": 0.0001332,
        "meta_inclination": 43.0002,
        "meta_ra_of_asc_node": 68.7926,
        "meta_arg_of_pericenter": 286.4123,
        "meta_mean_anomaly": 103.7521,
        "meta_ephemeris_type": 0,
        "meta_classification_type": "U",
        "meta_norad_cat_id": 66857,
        "meta_element_set_no": 999,
        "meta_rev_at_epoch": 280,
        "meta_bstar": -0.017471,
        "meta_mean_motion_dot": -0.01943803,
        "meta_mean_motion_ddot": 0,
        "tle_line1": "1 66857U 25281K   25355.50002315 -.01943803  00000+0 -17471-1 0  9996",
        "tle_line2": "2 66857  43.0002  68.7926 0001332 286.4123 103.7521 15.70349349  2800"
      },
      "geometry": {
        "type": "Point",
        "coordinates": [
          145.79897359921534,
          42.37062187323404
        ]
      }
    },
    {
      "type": "Feature",
      "properties": {
        "norad_id": 66858,
        "name": "STARLINK-35118",
        "group": "last-30-days",
        "lat": 42.60908501428036,
        "lon": 148.37449272930664,
        "alt_km": 354.42377294197104,
        "timestamp": "2025-12-21T16:47:53.450677+00:00",
        "meta_object_name": "STARLINK-35118",
        "meta_object_id": "2025-281L",
        "meta_epoch": "2025-12-21T12:00:02.000160",
        "meta_mean_motion": 15.70351635,
        "meta_eccentricity": 0.0001328,
        "meta_inclination": 43.0004,
        "meta_ra_of_asc_node": 68.7874,
        "meta_arg_of_pericenter": 284.1432,
        "meta_mean_anomaly": 107.9363,
        "meta_ephemeris_type": 0,
        "meta_classification_type": "U",
        "meta_norad_cat_id": 66858,
        "meta_element_set_no": 999,
        "meta_rev_at_epoch": 258,
        "meta_bstar": -0.01749,
        "meta_mean_motion_dot": -0.01945805,
        "meta_mean_motion_ddot": 0,
        "tle_line1": "1 66858U 25281L   25355.50002315 -.01945805  00000+0 -17490-1 0  9992",
        "tle_line2": "2 66858  43.0004  68.7874 0001328 284.1432 107.9363 15.70351635  2584"
      },
      "geometry": {
        "type": "Point",
        "coordinates": [
          148.37449272930664,
          42.60908501428036
        ]
      }
    },
    {
      "type": "Feature",
      "properties": {
        "norad_id": 66859,
        "name": "STARLINK-35646",
        "group": "last-30-days",
        "lat": 42.78913436418726,
        "lon": 150.9700212977884,
        "alt_km": 354.3928492546893,
        "timestamp": "2025-12-21T16:47:53.450689+00:00",
        "meta_object_name": "STARLINK-35646",
        "meta_object_id": "2025-281M",
        "meta_epoch": "2025-12-21T12:00:02.000160",
        "meta_mean_motion": 15.7034807,
        "meta_eccentricity": 0.0001328,
        "meta_inclination": 43.0004,
        "meta_ra_of_asc_node": 68.7829,
        "meta_arg_of_pericenter": 286.8021,
        "meta_mean_anomaly": 107.1954,
        "meta_ephemeris_type": 0,
        "meta_classification_type": "U",
        "meta_norad_cat_id": 66859,
        "meta_element_set_no": 999,
        "meta_rev_at_epoch": 280,
        "meta_bstar": -0.017445,
        "meta_mean_motion_dot": -0.01941081,
        "meta_mean_motion_ddot": 0,
        "tle_line1": "1 66859U 25281M   25355.50002315 -.01941081  00000+0 -17445-1 0  9995",
        "tle_line2": "2 66859  43.0004  68.7829 0001328 286.8021 107.1954 15.70348070  2800"
      },
      "geometry": {
        "type": "Point",
        "coordinates": [
          150.9700212977884,
          42.78913436418726
        ]
      }
    },
    {
      "type": "Feature",
      "properties": {
        "norad_id": 66860,
        "name": "STARLINK-35987",
        "group": "last-30-days",
        "lat": 42.796424519533865,
        "lon": 164.03689338640643,
        "alt_km": 354.4197780656741,
        "timestamp": "2025-12-21T16:47:53.450699+00:00",
        "meta_object_name": "STARLINK-35987",
        "meta_object_id": "2025-281N",
        "meta_epoch": "2025-12-21T12:00:02.000160",
        "meta_mean_motion": 15.70350069,
        "meta_eccentricity": 0.0001253,
        "meta_inclination": 43.0004,
        "meta_ra_of_asc_node": 68.7592,
        "meta_arg_of_pericenter": 281.5674,
        "meta_mean_anomaly": 122.0169,
        "meta_ephemeris_type": 0,
        "meta_classification_type": "U",
        "meta_norad_cat_id": 66860,
        "meta_element_set_no": 999,
        "meta_rev_at_epoch": 280,
        "meta_bstar": -0.017484,
        "meta_mean_motion_dot": -0.01944986,
        "meta_mean_motion_ddot": 0,
        "tle_line1": "1 66860U 25281N   25355.50002315 -.01944986  00000+0 -17484-1 0  9997",
        "tle_line2": "2 66860  43.0004  68.7592 0001253 281.5674 122.0169 15.70350069  2807"
      },
      "geometry": {
        "type": "Point",
        "coordinates": [
          164.03689338640643,
          42.796424519533865
        ]
      }
    },
    {
      "type": "Feature",
      "properties": {
        "norad_id": 66861,
        "name": "STARLINK-35991",
        "group": "last-30-days",
        "lat": 42.97153377407775,
        "lon": 156.18983981193637,
        "alt_km": 354.4123225384201,
        "timestamp": "2025-12-21T16:47:53.450708+00:00",
        "meta_object_name": "STARLINK-35991",
        "meta_object_id": "2025-281P",
        "meta_epoch": "2025-12-21T12:00:02.000160",
        "meta_mean_motion": 15.70343742,
        "meta_eccentricity": 0.0001313,
        "meta_inclination": 43.0006,
        "meta_ra_of_asc_node": 68.7737,
        "meta_arg_of_pericenter": 281.9682,
        "meta_mean_anomaly": 115.8638,
        "meta_ephemeris_type": 0,
        "meta_classification_type": "U",
        "meta_norad_cat_id": 66861,
        "meta_element_set_no": 999,
        "meta_rev_at_epoch": 280,
        "meta_bstar": -0.017373,
        "meta_mean_motion_dot": -0.01933647,
        "meta_mean_motion_ddot": 0,
        "tle_line1": "1 66861U 25281P   25355.50002315 -.01933647  00000+0 -17373-1 0  9997",
        "tle_line2": "2 66861  43.0006  68.7737 0001313 281.9682 115.8638 15.70343742  2802"
      },
      "geometry": {
        "type": "Point",
        "coordinates": [
          156.18983981193637,
          42.97153377407775
        ]
      }
    },
    {
      "type": "Feature",
      "properties": {
        "norad_id": 66862,
        "name": "STARLINK-35974",
        "group": "last-30-days",
        "lat": 42.910283068994616,
        "lon": 153.57874027350957,
        "alt_km": 354.3569274369511,
        "timestamp": "2025-12-21T16:47:53.450718+00:00",
        "meta_object_name": "STARLINK-35974",
        "meta_object_id": "2025-281Q",
        "meta_epoch": "2025-12-21T12:00:02.000160",
        "meta_mean_motion": 15.70349001,
        "meta_eccentricity": 0.0001278,
        "meta_inclination": 43.0006,
        "meta_ra_of_asc_node": 68.7783,
        "meta_arg_of_pericenter": 286.6863,
        "meta_mean_anomaly": 109.2286,
        "meta_ephemeris_type": 0,
        "meta_classification_type": "U",
        "meta_norad_cat_id": 66862,
        "meta_element_set_no": 999,
        "meta_rev_at_epoch": 270,
        "meta_bstar": -0.017461,
        "meta_mean_motion_dot": -0.01942699,
        "meta_mean_motion_ddot": 0,
        "tle_line1": "1 66862U 25281Q   25355.50002315 -.01942699  00000+0 -17461-1 0  9993",
        "tle_line2": "2 66862  43.0006  68.7783 0001278 286.6863 109.2286 15.70349001  2706"
      },
      "geometry": {
        "type": "Point",
        "coordinates": [
          153.57874027350957,
          42.910283068994616
        ]
      }
    }
  ]
}